start=new Date('2023-03-17T00:00:00.000Z').valueOf();
sats=[{"TLE_LINE2":"2 46164  53.0539 125.5260 0001240  93.7628 266.3503 15.06353751143741","OBJECT_ID":"2020-057AZ","TIME_SYSTEM":"UTC","CLASSIFICATION_TYPE":"U","TLE_LINE1":"1 46164U 20057AZ  23075.64538252  .00024369  00000-0  16513-2 0  9999","OBJECT_NAME":"STARLINK-1612","APOAPSIS":"548.214","SEMIMAJOR_AXIS":"6925.490","PERIAPSIS":"546.497","BSTAR":"0.00165130000000","REV_AT_EPOCH":"14374","FILE":"3862592","GP_ID":"228279943","NORAD_CAT_ID":"46164","RCS_SIZE":"LARGE","EPOCH":"2023-03-16T15:29:21.049728","PERIOD":"95.595","REF_FRAME":"TEME","ECCENTRICITY":"0.00012400","ARG_OF_PERICENTER":"93.7628","EPHEMERIS_TYPE":"0","MEAN_MOTION":"15.06353751","SITE":"AFETR","INCLINATION":"53.0539","MEAN_MOTION_DOT":"0.00024369","COUNTRY_CODE":"US","LAUNCH_DATE":"2020-08-18","RA_OF_ASC_NODE":"125.5260","OBJECT_TYPE":"PAYLOAD","CENTER_NAME":"EARTH","MEAN_MOTION_DDOT":"0.0000000000000","DECAY_DATE":null,"ELEMENT_SET_NO":"999","MEAN_ANOMALY":"266.3503","MEAN_ELEMENT_THEORY":"SGP4"},{"EPHEMERIS_TYPE":"0","ECCENTRICITY":"0.00050030","ARG_OF_PERICENTER":"6.8761","REF_FRAME":"TEME","MEAN_MOTION":"15.28435146","NORAD_CAT_ID":"46165","RCS_SIZE":"LARGE","GP_ID":"228280693","EPOCH":"2023-03-16T21:19:40.832256","PERIOD":"94.214","FILE":"3862592","MEAN_MOTION_DDOT":"0.0000000000000","CENTER_NAME":"EARTH","DECAY_DATE":null,"MEAN_ELEMENT_THEORY":"SGP4","ELEMENT_SET_NO":"999","MEAN_ANOMALY":"353.2306","LAUNCH_DATE":"2020-08-18","RA_OF_ASC_NODE":"136.2083","OBJECT_TYPE":"PAYLOAD","MEAN_MOTION_DOT":"0.00020213","COUNTRY_CODE":"US","SITE":"AFETR","INCLINATION":"53.0636","APOAPSIS":"483.923","OBJECT_NAME":"STARLINK-1613","TLE_LINE1":"1 46165U 20057BA  23075.88866704  .00020213  00000-0  73093-3 0  9993","TIME_SYSTEM":"UTC","CLASSIFICATION_TYPE":"U","TLE_LINE2":"2 46165  53.0636 136.2083 0005003   6.8761 353.2306 15.28435146142363","OBJECT_ID":"2020-057BA","REV_AT_EPOCH":"14236","BSTAR":"0.00073093000000","SEMIMAJOR_AXIS":"6858.627","PERIAPSIS":"477.060"},{"TLE_LINE2":"2 46166  53.0536 165.5950 0002117  95.4630 264.6601 15.06320465141920","OBJECT_ID":"2020-057BB","TIME_SYSTEM":"UTC","CLASSIFICATION_TYPE":"U","TLE_LINE1":"1 46166U 20057BB  23075.63065507 -.00000200  00000-0  55132-5 0  9990","OBJECT_NAME":"STARLINK-1615","APOAPSIS":"548.923","SEMIMAJOR_AXIS":"6925.592","PERIAPSIS":"545.991","BSTAR":"0.00000551320000","REV_AT_EPOCH":"14192","FILE":"3862592","GP_ID":"228278943","NORAD_CAT_ID":"46166","RCS_SIZE":"LARGE","EPOCH":"2023-03-16T15:08:08.598048","PERIOD":"95.597","ARG_OF_PERICENTER":"95.4630","ECCENTRICITY":"0.00021170","REF_FRAME":"TEME","EPHEMERIS_TYPE":"0","MEAN_MOTION":"15.06320465","SITE":"AFETR","INCLINATION":"53.0536","MEAN_MOTION_DOT":"-0.00000200","COUNTRY_CODE":"US","LAUNCH_DATE":"2020-08-18","RA_OF_ASC_NODE":"165.5950","OBJECT_TYPE":"PAYLOAD","CENTER_NAME":"EARTH","MEAN_MOTION_DDOT":"0.0000000000000","DECAY_DATE":null,"MEAN_ELEMENT_THEORY":"SGP4","MEAN_ANOMALY":"264.6601","ELEMENT_SET_NO":"999"},{"TLE_LINE2":"2 46167  53.0541 165.5282 0001691  94.9264 265.1918 15.06438468141928","OBJECT_ID":"2020-057BC","TIME_SYSTEM":"UTC","CLASSIFICATION_TYPE":"U","TLE_LINE1":"1 46167U 20057BC  23075.64534029  .00033622  00000-0  22630-2 0  9999","OBJECT_NAME":"STARLINK-1626","APOAPSIS":"548.267","SEMIMAJOR_AXIS":"6925.231","PERIAPSIS":"545.925","BSTAR":"0.00226300000000","REV_AT_EPOCH":"14192","FILE":"3862592","GP_ID":"228279192","RCS_SIZE":"LARGE","NORAD_CAT_ID":"46167","PERIOD":"95.590","EPOCH":"2023-03-16T15:29:17.401056","REF_FRAME":"TEME","ECCENTRICITY":"0.00016910","ARG_OF_PERICENTER":"94.9264","EPHEMERIS_TYPE":"0","MEAN_MOTION":"15.06438468","SITE":"AFETR","INCLINATION":"53.0541","COUNTRY_CODE":"US","MEAN_MOTION_DOT":"0.00033622","RA_OF_ASC_NODE":"165.5282","LAUNCH_DATE":"2020-08-18","OBJECT_TYPE":"PAYLOAD","CENTER_NAME":"EARTH","MEAN_MOTION_DDOT":"0.0000000000000","ELEMENT_SET_NO":"999","DECAY_DATE":null,"MEAN_ANOMALY":"265.1918","MEAN_ELEMENT_THEORY":"SGP4"},{"REF_FRAME":"TEME","ECCENTRICITY":"0.00009100","ARG_OF_PERICENTER":"109.7811","EPHEMERIS_TYPE":"0","MEAN_MOTION":"15.06394151","FILE":"3862592","GP_ID":"228280443","RCS_SIZE":"LARGE","NORAD_CAT_ID":"46168","EPOCH":"2023-03-16T19:45:26.197632","PERIOD":"95.593","LAUNCH_DATE":"2020-08-18","RA_OF_ASC_NODE":"114.8161","OBJECT_TYPE":"PAYLOAD","CENTER_NAME":"EARTH","MEAN_MOTION_DDOT":"0.0000000000000","DECAY_DATE":null,"ELEMENT_SET_NO":"999","MEAN_ELEMENT_THEORY":"SGP4","MEAN_ANOMALY":"250.3276","SITE":"AFETR","INCLINATION":"53.0509","MEAN_MOTION_DOT":"0.00004455","COUNTRY_CODE":"US","TLE_LINE1":"1 46168U 20057BD  23075.82321988  .00004455  00000-0  31785-3 0  9992","OBJECT_NAME":"STARLINK-1627","APOAPSIS":"547.862","TLE_LINE2":"2 46168  53.0509 114.8161 0000910 109.7811 250.3276 15.06394151142645","OBJECT_ID":"2020-057BD","TIME_SYSTEM":"UTC","CLASSIFICATION_TYPE":"U","BSTAR":"0.00031785000000","REV_AT_EPOCH":"14264","SEMIMAJOR_AXIS":"6925.366","PERIAPSIS":"546.601"},{"SITE":"AFETR","INCLINATION":"53.0551","COUNTRY_CODE":"US","MEAN_MOTION_DOT":"-0.00005506","LAUNCH_DATE":"2020-08-18","RA_OF_ASC_NODE":"166.1427","OBJECT_TYPE":"PAYLOAD","CENTER_NAME":"EARTH","MEAN_MOTION_DDOT":"0.0000000000000","MEAN_ANOMALY":"269.6111","DECAY_DATE":null,"MEAN_ELEMENT_THEORY":"SGP4","ELEMENT_SET_NO":"999","FILE":"3862325","GP_ID":"228253940","RCS_SIZE":"LARGE","NORAD_CAT_ID":"46169","EPOCH":"2023-03-16T14:15:04.748544","PERIOD":"95.597","REF_FRAME":"TEME","ECCENTRICITY":"0.00019160","ARG_OF_PERICENTER":"90.5098","EPHEMERIS_TYPE":"0","MEAN_MOTION":"15.06327943","SEMIMAJOR_AXIS":"6925.569","PERIAPSIS":"546.107","BSTAR":"-0.00035171000000","REV_AT_EPOCH":"14251","TLE_LINE2":"2 46169  53.0551 166.1427 0001916  90.5098 269.6111 15.06327943142511","OBJECT_ID":"2020-057BE","TIME_SYSTEM":"UTC","CLASSIFICATION_TYPE":"U","TLE_LINE1":"1 46169U 20057BE  23075.59380496 -.00005506  00000-0 -35171-3 0  9999","OBJECT_NAME":"STARLINK-1628","APOAPSIS":"548.761"},{"GP_ID":"228279442","NORAD_CAT_ID":"46171","RCS_SIZE":"LARGE","EPOCH":"2023-03-16T21:17:00.295872","PERIOD":"95.596","FILE":"3862592","ARG_OF_PERICENTER":"83.6763","ECCENTRICITY":"0.00019280","REF_FRAME":"TEME","EPHEMERIS_TYPE":"0","MEAN_MOTION":"15.06339430","MEAN_MOTION_DOT":"0.00023355","COUNTRY_CODE":"US","SITE":"AFETR","INCLINATION":"53.0541","CENTER_NAME":"EARTH","MEAN_MOTION_DDOT":"0.0000000000000","MEAN_ANOMALY":"276.4446","DECAY_DATE":null,"ELEMENT_SET_NO":"999","MEAN_ELEMENT_THEORY":"SGP4","RA_OF_ASC_NODE":"144.4452","LAUNCH_DATE":"2020-08-18","OBJECT_TYPE":"PAYLOAD","TIME_SYSTEM":"UTC","CLASSIFICATION_TYPE":"U","TLE_LINE2":"2 46171  53.0541 144.4452 0001928  83.6763 276.4446 15.06339430143494","OBJECT_ID":"2020-057BG","OBJECT_NAME":"STARLINK-1633","APOAPSIS":"548.734","TLE_LINE1":"1 46171U 20057BG  23075.88680898  .00023355  00000-0  15842-2 0  9995","SEMIMAJOR_AXIS":"6925.534","PERIAPSIS":"546.064","REV_AT_EPOCH":"14349","BSTAR":"0.00158420000000"},{"TLE_LINE1":"1 46172U 20057BH  23075.70254010  .00033705  00000-0  22726-2 0  9999","APOAPSIS":"548.328","OBJECT_NAME":"STARLINK-1635","OBJECT_ID":"2020-057BH","TLE_LINE2":"2 46172  53.0521 145.2715 0001483  67.2110 292.9036 15.06371612143467","TIME_SYSTEM":"UTC","CLASSIFICATION_TYPE":"U","BSTAR":"0.00227260000000","REV_AT_EPOCH":"14346","PERIAPSIS":"546.274","SEMIMAJOR_AXIS":"6925.436","MEAN_MOTION":"15.06371612","EPHEMERIS_TYPE":"0","REF_FRAME":"TEME","ECCENTRICITY":"0.00014830","ARG_OF_PERICENTER":"67.2110","FILE":"3862592","PERIOD":"95.594","EPOCH":"2023-03-16T16:51:39.464640","RCS_SIZE":"LARGE","NORAD_CAT_ID":"46172","GP_ID":"228279692","OBJECT_TYPE":"PAYLOAD","LAUNCH_DATE":"2020-08-18","RA_OF_ASC_NODE":"145.2715","ELEMENT_SET_NO":"999","DECAY_DATE":null,"MEAN_ELEMENT_THEORY":"SGP4","MEAN_ANOMALY":"292.9036","MEAN_MOTION_DDOT":"0.0000000000000","CENTER_NAME":"EARTH","INCLINATION":"53.0521","SITE":"AFETR","MEAN_MOTION_DOT":"0.00033705","COUNTRY_CODE":"US"},{"COUNTRY_CODE":"US","MEAN_MOTION_DOT":"0.00010743","SITE":"AFETR","INCLINATION":"53.0536","CENTER_NAME":"EARTH","MEAN_MOTION_DDOT":"0.0000000000000","DECAY_DATE":null,"ELEMENT_SET_NO":"999","MEAN_ELEMENT_THEORY":"SGP4","MEAN_ANOMALY":"273.4527","LAUNCH_DATE":"2020-08-18","RA_OF_ASC_NODE":"165.0609","OBJECT_TYPE":"PAYLOAD","GP_ID":"228279944","NORAD_CAT_ID":"46173","RCS_SIZE":"LARGE","PERIOD":"95.595","EPOCH":"2023-03-16T17:58:00.570144","FILE":"3862592","REF_FRAME":"TEME","ECCENTRICITY":"0.00014550","ARG_OF_PERICENTER":"86.6628","EPHEMERIS_TYPE":"0","MEAN_MOTION":"15.06361968","SEMIMAJOR_AXIS":"6925.465","PERIAPSIS":"546.322","REV_AT_EPOCH":"14193","BSTAR":"0.00073978000000","TIME_SYSTEM":"UTC","CLASSIFICATION_TYPE":"U","TLE_LINE2":"2 46173  53.0536 165.0609 0001455  86.6628 273.4527 15.06361968141936","OBJECT_ID":"2020-057BJ","OBJECT_NAME":"STARLINK-1640","APOAPSIS":"548.338","TLE_LINE1":"1 46173U 20057BJ  23075.74861771  .00010743  00000-0  73978-3 0  9995"},{"EPHEMERIS_TYPE":"0","ECCENTRICITY":"0.00020600","REF_FRAME":"TEME","ARG_OF_PERICENTER":"93.5923","MEAN_MOTION":"15.06346008","NORAD_CAT_ID":"46174","RCS_SIZE":"LARGE","GP_ID":"228280694","PERIOD":"95.596","EPOCH":"2023-03-16T18:08:35.374272","FILE":"3862592","MEAN_MOTION_DDOT":"0.0000000000000","CENTER_NAME":"EARTH","DECAY_DATE":null,"ELEMENT_SET_NO":"999","MEAN_ANOMALY":"266.5302","MEAN_ELEMENT_THEORY":"SGP4","LAUNCH_DATE":"2020-08-18","RA_OF_ASC_NODE":"165.0283","OBJECT_TYPE":"PAYLOAD","COUNTRY_CODE":"US","MEAN_MOTION_DOT":"0.00037526","SITE":"AFETR","INCLINATION":"53.0524","APOAPSIS":"548.806","OBJECT_NAME":"STARLINK-1641","TLE_LINE1":"1 46174U 20057BK  23075.75596498  .00037526  00000-0  25284-2 0  9992","CLASSIFICATION_TYPE":"U","TIME_SYSTEM":"UTC","TLE_LINE2":"2 46174  53.0524 165.0283 0002060  93.5923 266.5302 15.06346008141932","OBJECT_ID":"2020-057BK","REV_AT_EPOCH":"14193","BSTAR":"0.00252840000000","SEMIMAJOR_AXIS":"6925.514","PERIAPSIS":"545.952"}];
